STARLINK-31407          
1 59250U 24049V   26068.21737184  .00001319  00000+0  57445-4 0  9997
2 59250  42.9986 134.9722 0001533 280.0581  80.0097 15.27577137112457
KUIPER-00204            
1 67145U 25301N   26068.39760395  .00020516  00000+0  79568-3 0  9999
2 67145  51.8870  71.6415 0003071 354.8934   5.2016 15.26088400 13737
